{"type": "FeatureCollection", "features": [ {"type": "Feature", "properties": {"norad_id": 66442, "name": "STARLINK-34724", "group": "last-30-days", "lat": 42.74745657361367, "lon": 140.7679925498925, "alt_km": 437.4930760355719, "timestamp": "2025-12-10T21:43:20.861043+00:00", "meta": {"OBJECT_NAME": "STARLINK-34724", "OBJECT_ID": "2025-259W", "EPOCH": "2025-12-10T16:00:01.999584", "MEAN_MOTION": 15.41649343, "ECCENTRICITY": 0.00013852, "INCLINATION": 43.0009, "RA_OF_ASC_NODE": 59.4538, "ARG_OF_PERICENTER": 291.0705, "MEAN_ANOMALY": 269.1175, "EPHEMERIS_TYPE": 0, "CLASSIFICATION_TYPE": "U", "NORAD_CAT_ID": 66442, "ELEMENT_SET_NO": 999, "REV_AT_EPOCH": 594, "BSTAR": -0.034472056, "MEAN_MOTION_DOT": -0.01356337, "MEAN_MOTION_DDOT": 0}, "tle": {"line1": "1 66442U 25259W   25344.66668981 -.01356337  00000+0 -34472-1 0  9993", "line2": "2 66442  43.0009  59.4538 0001385 291.0705 269.1175 15.41649343  5944"}}, "geometry": {"type": "Point", "coordinates": [140.7679925498925, 42.74745657361367]}}, {"type": "Feature", "properties": {"norad_id": 66443, "name": "STARLINK-35219", "group": "last-30-days", "lat": 42.668256781351, "lon": 156.5047700595254, "alt_km": 433.78787347793786, "timestamp": "2025-12-10T21:43:20.861054+00:00", "meta": {"OBJECT_NAME": "STARLINK-35219", "OBJECT_ID": "2025-259X", "EPOCH": "2025-12-10T16:00:01.999584", "MEAN_MOTION": 15.43174142, "ECCENTRICITY": 0.00010592, "INCLINATION": 43.0007, "RA_OF_ASC_NODE": 59.4282, "ARG_OF_PERICENTER": 281.6111, "MEAN_ANOMALY": 288.9422, "EPHEMERIS_TYPE": 0, "CLASSIFICATION_TYPE": "U", "NORAD_CAT_ID": 66443, "ELEMENT_SET_NO": 999, "REV_AT_EPOCH": 584, "BSTAR": -0.045957195, "MEAN_MOTION_DOT": -0.01872837, "MEAN_MOTION_DDOT": 0}, "tle": {"line1": "1 66443U 25259X   25344.66668981 -.01872837  00000+0 -45957-1 0  9992", "line2": "2 66443  43.0007  59.4282 0001059 281.6111 288.9422 15.43174142  5848"}}, "geometry": {"type": "Point", "coordinates": [156.5047700595254, 42.668256781351]}}, {"type": "Feature", "properties": {"norad_id": 66444, "name": "STARLINK-35360", "group": "last-30-days", "lat": 30.306241326355373, "lon": -160.88974923683435, "alt_km": 411.58762713013493, "timestamp": "2025-12-10T21:43:20.861065+00:00", "meta": {"OBJECT_NAME": "STARLINK-35360", "OBJECT_ID": "2025-259Y", "EPOCH": "2025-12-10T11:52:55.103808", "MEAN_MOTION": 15.51073811, "ECCENTRICITY": 0.00114819, "INCLINATION": 43.0003, "RA_OF_ASC_NODE": 60.358, "ARG_OF_PERICENTER": 244.0762, "MEAN_ANOMALY": 115.8915, "EPHEMERIS_TYPE": 0, "CLASSIFICATION_TYPE": "U", "NORAD_CAT_ID": 66444, "ELEMENT_SET_NO": 999, "REV_AT_EPOCH": 582, "BSTAR": 0.0028942031, "MEAN_MOTION_DOT": 0.00176816, "MEAN_MOTION_DDOT": 0}, "tle": {"line1": "1 66444U 25259Y   25344.49508222  .00176816  00000+0  28942-2 0  9992", "line2": "2 66444  43.0003  60.3580 0011481 244.0762 115.8915 15.51073811  5825"}}, "geometry": {"type": "Point", "coordinates": [-160.88974923683435, 30.306241326355373]}}, {"type": "Feature", "properties": {"norad_id": 66445, "name": "STARLINK-34698", "group": "last-30-days", "lat": 40.848348613506005, "lon": 169.91772719608804, "alt_km": 430.3590218329, "timestamp": "2025-12-10T21:43:20.861075+00:00", "meta": {"OBJECT_NAME": "STARLINK-34698", "OBJECT_ID": "2025-259Z", "EPOCH": "2025-12-10T16:00:01.999584", "MEAN_MOTION": 15.44537646, "ECCENTRICITY": 0.00011662, "INCLINATION": 43.0001, "RA_OF_ASC_NODE": 59.4056, "ARG_OF_PERICENTER": 283.1746, "MEAN_ANOMALY": 296.4, "EPHEMERIS_TYPE": 0, "CLASSIFICATION_TYPE": "U", "NORAD_CAT_ID": 66445, "ELEMENT_SET_NO": 999, "REV_AT_EPOCH": 583, "BSTAR": -0.047034487, "MEAN_MOTION_DOT": -0.0199381, "MEAN_MOTION_DDOT": 0}, "tle": {"line1": "1 66445U 25259Z   25344.66668981 -.01993810  00000+0 -47034-1 0  9997", "line2": "2 66445  43.0001  59.4056 0001166 283.1746 296.4000 15.44537646  5831"}}, "geometry": {"type": "Point", "coordinates": [169.91772719608804, 40.848348613506005]}}, {"type": "Feature", "properties": {"norad_id": 66446, "name": "STARLINK-34986", "group": "last-30-days", "lat": 32.802139138603, "lon": -165.79371598424027, "alt_km": 407.9334490022529, "timestamp": "2025-12-10T21:43:20.861088+00:00", "meta": {"OBJECT_NAME": "STARLINK-34986", "OBJECT_ID": "2025-259AA", "EPOCH": "2025-12-10T11:53:56.096160", "MEAN_MOTION": 15.5041251, "ECCENTRICITY": 0.00107427, "INCLINATION": 42.9988, "RA_OF_ASC_NODE": 60.3635, "ARG_OF_PERICENTER": 198.1477, "MEAN_ANOMALY": 161.9001, "EPHEMERIS_TYPE": 0, "CLASSIFICATION_TYPE": "U", "NORAD_CAT_ID": 66446, "ELEMENT_SET_NO": 999, "REV_AT_EPOCH": 582, "BSTAR": 0.0021857098, "MEAN_MOTION_DOT": 0.00129517, "MEAN_MOTION_DDOT": 0}, "tle": {"line1": "1 66446U 25259AA  25344.49578815  .00129517  00000+0  21857-2 0  9993", "line2": "2 66446  42.9988  60.3635 0010742 198.1477 161.9001 15.50412510  5829"}}, "geometry": {"type": "Point", "coordinates": [-165.79371598424027, 32.802139138603]}}, {"type": "Feature", "properties": {"norad_id": 66447, "name": "STARLINK-34851", "group": "last-30-days", "lat": 30.13655708621867, "lon": -160.579203602037, "alt_km": 410.4352747246021, "timestamp": "2025-12-10T21:43:20.861099+00:00", "meta": {"OBJECT_NAME": "STARLINK-34851", "OBJECT_ID": "2025-259AB", "EPOCH": "2025-12-10T05:41:44.121408", "MEAN_MOTION": 15.50651186, "ECCENTRICITY": 0.0001321, "INCLINATION": 42.9984, "RA_OF_ASC_NODE": 61.8661, "ARG_OF_PERICENTER": 284.8329, "MEAN_ANOMALY": 75.2384, "EPHEMERIS_TYPE": 0, "CLASSIFICATION_TYPE": "U", "NORAD_CAT_ID": 66447, "ELEMENT_SET_NO": 999, "REV_AT_EPOCH": 567, "BSTAR": 0.0017574, "MEAN_MOTION_DOT": 0.00104412, "MEAN_MOTION_DDOT": 0}, "tle": {"line1": "1 66447U 25259AB  25344.23731622  .00104412  00000+0  17574-2 0  9991", "line2": "2 66447  42.9984  61.8661 0001321 284.8329  75.2384 15.50651186  5671"}}, "geometry": {"type": "Point", "coordinates": [-160.579203602037, 30.13655708621867]}}, {"type": "Feature", "properties": {"norad_id": 66448, "name": "STARLINK-35355", "group": "last-30-days", "lat": 29.272325562212643, "lon": -159.01935416426332, "alt_km": 412.33412762190983, "timestamp": "2025-12-10T21:43:20.861111+00:00", "meta": {"OBJECT_NAME": "STARLINK-35355", "OBJECT_ID": "2025-259AC", "EPOCH": "2025-12-10T13:25:01.561440", "MEAN_MOTION": 15.5060967, "ECCENTRICITY": 0.00043605, "INCLINATION": 43.0057, "RA_OF_ASC_NODE": 59.9766, "ARG_OF_PERICENTER": 272.1256, "MEAN_ANOMALY": 87.9104, "EPHEMERIS_TYPE": 0, "CLASSIFICATION_TYPE": "U", "NORAD_CAT_ID": 66448, "ELEMENT_SET_NO": 999, "REV_AT_EPOCH": 583, "BSTAR": 0.0019215458, "MEAN_MOTION_DOT": 0.00114197, "MEAN_MOTION_DDOT": 0}, "tle": {"line1": "1 66448U 25259AC  25344.55904585  .00114197  00000+0  19215-2 0  9992", "line2": "2 66448  43.0057  59.9766 0004360 272.1256  87.9104 15.50609670  5833"}}, "geometry": {"type": "Point", "coordinates": [-159.01935416426332, 29.272325562212643]}}, {"type": "Feature", "properties": {"norad_id": 66449, "name": "STARLINK-34720", "group": "last-30-days", "lat": 28.117073020384208, "lon": -157.03903843031446, "alt_km": 411.02703972490053, "timestamp": "2025-12-10T21:43:20.861121+00:00", "meta": {"OBJECT_NAME": "STARLINK-34720", "OBJECT_ID": "2025-259AD", "EPOCH": "2025-12-10T11:51:46.579968", "MEAN_MOTION": 15.50681611, "ECCENTRICITY": 0.00025267, "INCLINATION": 43.0013, "RA_OF_ASC_NODE": 60.3517, "ARG_OF_PERICENTER": 262.4662, "MEAN_ANOMALY": 97.5912, "EPHEMERIS_TYPE": 0, "CLASSIFICATION_TYPE": "U", "NORAD_CAT_ID": 66449, "ELEMENT_SET_NO": 999, "REV_AT_EPOCH": 571, "BSTAR": 0.0022240918, "MEAN_MOTION_DOT": 0.00132863, "MEAN_MOTION_DDOT": 0}, "tle": {"line1": "1 66449U 25259AD  25344.49428912  .00132863  00000+0  22241-2 0  9994", "line2": "2 66449  43.0013  60.3517 0002526 262.4662  97.5912 15.50681611  5717"}}, "geometry": {"type": "Point", "coordinates": [-157.03903843031446, 28.117073020384208]}}, {"type": "Feature", "properties": {"norad_id": 66450, "name": "STARLINK-35334", "group": "last-30-days", "lat": 27.10441253278253, "lon": -155.3695236678417, "alt_km": 411.2735354849083, "timestamp": "2025-12-10T21:43:20.861132+00:00", "meta": {"OBJECT_NAME": "STARLINK-35334", "OBJECT_ID": "2025-259AE", "EPOCH": "2025-12-10T13:24:02.373984", "MEAN_MOTION": 15.50613633, "ECCENTRICITY": 0.00020286, "INCLINATION": 43.003, "RA_OF_ASC_NODE": 59.9713, "ARG_OF_PERICENTER": 266.842, "MEAN_ANOMALY": 93.2208, "EPHEMERIS_TYPE": 0, "CLASSIFICATION_TYPE": "U", "NORAD_CAT_ID": 66450, "ELEMENT_SET_NO": 999, "REV_AT_EPOCH": 583, "BSTAR": 0.0021724597, "MEAN_MOTION_DOT": 0.00129395, "MEAN_MOTION_DDOT": 0}, "tle": {"line1": "1 66450U 25259AE  25344.55836081  .00129395  00000+0  21725-2 0  9995", "line2": "2 66450  43.0030  59.9713 0002028 266.8420  93.2208 15.50613633  5830"}}, "geometry": {"type": "Point", "coordinates": [-155.3695236678417, 27.10441253278253]}}, {"type": "Feature", "properties": {"norad_id": 66454, "name": "VIASAT-3 F2", "group": "last-30-days", "lat": 5.3648050158495915, "lon": 33.3365309882817, "alt_km": 17359.209603129162, "timestamp": "2025-12-10T21:43:20.861146+00:00", "meta": {"OBJECT_NAME": "VIASAT-3 F2", "OBJECT_ID": "2025-261A", "EPOCH": "2025-12-08T12:11:15.383616", "MEAN_MOTION": 2.19142646, "ECCENTRICITY": 0.22792154, "INCLINATION": 5.457, "RA_OF_ASC_NODE": 292.6501, "ARG_OF_PERICENTER": 190.5469, "MEAN_ANOMALY": 204.5187, "EPHEMERIS_TYPE": 0, "CLASSIFICATION_TYPE": "U", "NORAD_CAT_ID": 66454, "ELEMENT_SET_NO": 999, "REV_AT_EPOCH": 55, "BSTAR": 0, "MEAN_MOTION_DOT": -8.1e-07, "MEAN_MOTION_DDOT": 0}, "tle": {"line1": "1 66454U 25261A   25342.50781694 -.00000081  00000+0  00000+0 0  9995", "line2": "2 66454   5.4570 292.6501 2279215 190.5469 204.5187  2.19142646   557"}}, "geometry": {"type": "Point", "coordinates": [33.3365309882817, 5.3648050158495915]}}]}